NORAD_CAT_ID,OBJECT_NAME,OBJECT_TYPE,EPOCH,MEAN_MOTION,ECCENTRICITY,INCLINATION,RA_OF_ASC_NODE,ARG_OF_PERICENTER,MEAN_ANOMALY,BSTAR,MEAN_MOTION_DOT,MEAN_MOTION_DDOT,TLE_LINE0,TLE_LINE1,TLE_LINE2,SEMIMAJOR_AXIS,PERIOD,APOGEE,PERIGEE,DECAYED
51140.0,STARLINK-3175,PAYLOAD,2022-03-08 20:00:01,15.73032222,0.0003339,53.217,32.999,9.4341,138.1203,-0.001615,-0.00219967,0.0,0 STARLINK-3175,1 51140U 22005AN  22067.83334491 -.00219967  00000-0 -16150-2 0  9993,2 51140  53.2170  32.9990 0003339   9.4341 138.1203 15.73032222  8993,6728.374,91.543,352.485,347.992,0.0
51140.0,STARLINK-3175,PAYLOAD,2022-03-08 22:00:00,15.73020822,0.0003229,53.2172,32.5848,7.5317,252.1988,-0.0023021,-0.00309853,0.0,0 STARLINK-3175,1 51140U 22005AN  22067.91667824 -.00309853  00000-0 -23021-2 0  9990,2 51140  53.2172  32.5848 0003229   7.5317 252.1988 15.73020822  3707,6728.406,91.544,352.444,348.098,0.0
51140.0,STARLINK-3175,PAYLOAD,2022-03-09 06:00:00,15.72808624,0.0003451,53.2174,30.9336,5.2068,343.1262,-0.0056862,-0.00721893,0.0,0 STARLINK-3175,1 51140U 22005AN  22068.25001157 -.00721893  00000-0 -56862-2 0  9990,2 51140  53.2174  30.9336 0003451   5.2068 343.1262 15.72808624  9062,6729.011,91.556,353.1980000000001,348.55400000000014,0.0
51140.0,STARLINK-3175,PAYLOAD,2022-03-09 14:00:01,15.72296933,0.0003362,53.2174,29.2842,5.517,70.9617,-0.0057822,-0.00718412,0.0,0 STARLINK-3175,1 51140U 22005AN  22068.58334491 -.00718412  00000-0 -57822-2 0  9996,2 51140  53.2174  29.2842 0003362   5.5170  70.9617 15.72296933  3699,6730.471,91.586,354.599,350.0730000000001,0.0
51140.0,STARLINK-3175,PAYLOAD,2022-03-09 22:00:01,15.71787266,0.000374,53.2176,27.6366,3.3007,160.7753,-0.0059056,-0.00718102,0.0,0 STARLINK-3175,1 51140U 22005AN  22068.91668981 -.00718102  00000-0 -59056-2 0  9994,2 51140  53.2176  27.6366 0003740   3.3007 160.7753 15.71787266  3691,6731.926,91.615,356.309,351.273,0.0
51140.0,STARLINK-3175,PAYLOAD,2022-03-10 14:00:01,15.70756771,0.0005291,53.2173,24.3494,290.047,47.1907,-0.0060034,-0.00700796,0.0,0 STARLINK-3175,1 51140U 22005AN  22069.58334491 -.00700796  00000-0 -60034-2 0  9992,2 51140  53.2173  24.3494 0005291 290.0470  47.1907 15.70756771  3679,6734.87,91.676,360.298,353.172,0.0
51140.0,STARLINK-3175,PAYLOAD,2022-03-10 20:00:01,15.703763,0.0004079,53.2175,23.1142,306.4327,5.1333,-0.006126,-0.00703097,0.0,0 STARLINK-3175,1 51140U 22005AN  22069.83334491 -.00703097  00000-0 -61260-2 0  9999,2 51140  53.2175  23.1142 0004079 306.4327   5.1333 15.70376300  9314,6735.958000000001,91.698,360.57,355.075,0.0
51140.0,STARLINK-3175,PAYLOAD,2022-03-10 22:00:01,15.70264552,0.0004034,53.2176,22.704,314.3889,108.6028,-0.0064167,-0.00730572,0.0,0 STARLINK-3175,1 51140U 22005AN  22069.91668981 -.00730572  00000-0 -64167-2 0  9999,2 51140  53.2176  22.7040 0004034 314.3889 108.6028 15.70264552  3701,6736.276999999999,91.704,360.86,355.425,0.0
51140.0,STARLINK-3175,PAYLOAD,2022-03-11 12:00:00,15.69374221,0.0001921,53.2172,19.8326,284.948,196.4661,-0.0067063,-0.00734598,0.0,0 STARLINK-3175,1 51140U 22005AN  22070.50001157 -.00734598  00000-0 -67063-2 0  9992,2 51140  53.2172  19.8326 0001921 284.9480 196.4661 15.69374221  9417,6738.825,91.756,361.984,359.395,0.0
51140.0,STARLINK-3175,PAYLOAD,2022-03-11 14:00:01,15.692357,0.0001284,53.2175,19.422,279.0258,313.4519,-0.0065557,-0.0071548,0.0,0 STARLINK-3175,1 51140U 22005AN  22070.58334491 -.00715480  00000-0 -65557-2 0  9995,2 51140  53.2175  19.4220 0001284 279.0258 313.4519 15.69235700  3683,6739.221,91.764,361.952,360.221,0.0
51140.0,STARLINK-3175,PAYLOAD,2022-03-11 22:00:00,15.68723941,8.62e-05,53.2176,17.7825,27.2516,289.0819,-0.0066521,-0.00711031,0.0,0 STARLINK-3175,1 51140U 22005AN  22070.91667824 -.00711031  00000-0 -66521-2 0  9991,2 51140  53.2176  17.7825 0000862  27.2516 289.0819 15.68723941  3697,6740.687,91.794,363.133,361.971,0.0
51140.0,STARLINK-3175,PAYLOAD,2022-03-12 06:00:00,15.68216293,0.0001277,53.2176,16.1464,45.8508,353.7228,-0.0068451,-0.0071611,0.0,0 STARLINK-3175,1 51140U 22005AN  22071.25001157 -.00716110  00000-0 -68451-2 0  9997,2 51140  53.2176  16.1464 0001277  45.8508 353.7228 15.68216293  9536,6742.142,91.824,364.86800000000005,363.146,0.0
51140.0,STARLINK-3175,PAYLOAD,2022-03-12 14:00:01,15.67706695,0.0001195,53.2175,14.5077,63.0841,59.1196,-0.0069893,-0.00716011,0.0,0 STARLINK-3175,1 51140U 22005AN  22071.58334491 -.00716011  00000-0 -69893-2 0  9994,2 51140  53.2175  14.5077 0001195  63.0841  59.1196 15.67706695  3699,6743.603,91.854,366.273,364.662,0.0
51140.0,STARLINK-3175,PAYLOAD,2022-03-12 22:00:00,15.67196649,0.0001359,53.2177,12.8722,57.6458,146.5744,-0.0071325,-0.00715637,0.0,0 STARLINK-3175,1 51140U 22005AN  22071.91667824 -.00715637  00000-0 -71325-2 0  9996,2 51140  53.2177  12.8722 0001359  57.6458 146.5744 15.67196649  3708,6745.066,91.884,367.847,366.014,0.0
51140.0,STARLINK-3175,PAYLOAD,2022-03-13 06:00:00,15.66685835,0.0001252,53.2175,11.2397,63.7586,221.8647,-0.0072705,-0.00714515,0.0,0 STARLINK-3175,1 51140U 22005AN  22072.25001157 -.00714515  00000-0 -72705-2 0  9992,2 51140  53.2175  11.2397 0001252  63.7586 221.8647 15.66685835  9691,6746.531999999997,91.914,369.241,367.552,0.0
51140.0,STARLINK-3175,PAYLOAD,2022-03-13 14:00:01,15.66177137,0.0001032,53.2174,9.6048,70.828,295.587,-0.0074464,-0.00716606,0.0,0 STARLINK-3175,1 51140U 22005AN  22072.58334491 -.00716606  00000-0 -74464-2 0  9995,2 51140  53.2174   9.6048 0001032  70.8280 295.5870 15.66177137  3714,6747.9919999999975,91.944,370.554,369.161,0.0
51140.0,STARLINK-3175,PAYLOAD,2022-03-13 22:00:01,15.65668036,0.0001146,53.2174,7.9731,64.6964,21.9616,-0.007614,-0.0071772999999999,0.0,0 STARLINK-3175,1 51140U 22005AN  22072.91668981 -.00717730  00000-0 -76140-2 0  9998,2 51140  53.2174   7.9731 0001146  64.6964  21.9616 15.65668036  3698,6749.455,91.974,372.094,370.547,0.0
51140.0,STARLINK-3175,PAYLOAD,2022-03-14 04:00:00,15.65286273,0.0001095,53.2174,6.7516,71.1231,345.1998,-0.0077447,-0.00718802,0.0,0 STARLINK-3175,1 51140U 22005AN  22073.16667824 -.00718802  00000-0 -77447-2 0  9993,2 51140  53.2174   6.7516 0001095  71.1231 345.1998 15.65286273  9834,6750.553000000001,91.996,373.157,371.67800000000005,0.0
51140.0,STARLINK-3175,PAYLOAD,2022-03-14 14:00:01,15.646471,0.0001193,53.2177,4.7127,76.0623,169.1142,-0.0079099999999999,-0.00715844,0.0,0 STARLINK-3175,1 51140U 22005AN  22073.58335648 -.00715844  00000-0 -79100-2 0  9996,2 51140  53.2177   4.7127 0001193  76.0623 169.1142 15.64647100  3693,6752.391,92.034,375.061,373.45,0.0
51140.0,STARLINK-3175,PAYLOAD,2022-03-14 20:00:01,15.64265166,0.0001372,53.2177,3.4914,61.2644,152.6586,-0.0080262,-0.0071544,0.0,0 STARLINK-3175,1 51140U 22005AN  22073.83334491 -.00715440  00000-0 -80262-2 0  9992,2 51140  53.2177   3.4914 0001372  61.2644 152.6586 15.64265166  3676,6753.49,92.056,376.282,374.42800000000005,0.0
51140.0,STARLINK-3175,PAYLOAD,2022-03-14 22:00:00,15.64138578,0.0001215,53.2178,3.0851,58.8522,264.598,-0.0081009,-0.00718186,0.0,0 STARLINK-3175,1 51140U 22005AN  22073.91667824 -.00718186  00000-0 -81009-2 0  9990,2 51140  53.2178   3.0851 0001215  58.8522 264.5980 15.64138578  9950,6753.854,92.063,376.54,374.899,0.0
51140.0,STARLINK-3175,PAYLOAD,2022-03-15 02:00:01,15.63882945,0.0001313,53.2175,2.2726,71.0434,111.3465,-0.0081661999999999,-0.00716794,0.0,0 STARLINK-3175,1 51140U 22005AN  22074.08334491 -.00716794  00000-0 -81662-2 0  9998,2 51140  53.2175   2.2726 0001313  71.0434 111.3465 15.63882945  3670,6754.59,92.079,377.342,375.568,0.0
51140.0,STARLINK-3175,PAYLOAD,2022-03-15 22:00:00,15.62606737,0.0001415,53.2175,358.2082,56.4149,138.3788,-0.0085595,-0.0071457,0.0,0 STARLINK-3175,1 51140U 22005AN  22074.91667824 -.00714570  00000-0 -85595-2 0  9998,2 51140  53.2175 358.2082 0001415  56.4149 138.3788 15.62606737  3682,6758.268,92.154,381.089,379.176,0.0
51140.0,STARLINK-3175,PAYLOAD,2022-03-16 14:00:01,15.61585815,0.0001047,53.2174,354.9625,73.1475,272.8115,-0.0088889,-0.00713049,0.0,0 STARLINK-3175,1 51140U 22005AN  22075.58334491 -.00713049  00000-0 -88889-2 0  9992,2 51140  53.2174 354.9625 0001047  73.1475 272.8115 15.61585815  3686,6761.2130000000025,92.214,383.786,382.37,0.0
51140.0,STARLINK-3175,PAYLOAD,2022-03-16 20:00:01,15.61205651,0.0001155,53.2176,353.747,76.6131,235.3995,-0.0090604,-0.00715895,0.0,0 STARLINK-3175,1 51140U 22005AN  22075.83334491 -.00715895  00000-0 -90604-2 0  9999,2 51140  53.2176 353.7470 0001155  76.6131 235.3995 15.61205651  3722,6762.31,92.236,384.956,383.394,0.0
51140.0,STARLINK-3175,PAYLOAD,2022-03-17 06:00:00,15.605649,0.0001163,53.2173,351.7242,71.8349,62.8365,-0.009214,-0.00710638,0.0,0 STARLINK-3175,1 51140U 22005AN  22076.25001157 -.00710638  00000-0 -92140-2 0  9993,2 51140  53.2173 351.7242 0001163  71.8349  62.8365 15.60564900 10312,6764.161,92.274,386.81300000000016,385.24,0.0
51140.0,STARLINK-3175,PAYLOAD,2022-03-17 14:00:01,15.60055614,0.0001254,53.2175,350.1038,70.4779,137.6321,-0.0094098,-0.00711552,0.0,0 STARLINK-3175,1 51140U 22005AN  22076.58334491 -.00711552  00000-0 -94098-2 0  9999,2 51140  53.2175 350.1038 0001254  70.4779 137.6321 15.60055614  3696,6765.6330000000025,92.304,388.347,386.65,0.0
51140.0,STARLINK-3175,PAYLOAD,2022-03-17 22:00:00,15.59547079,0.0001218,53.2177,348.48800000000006,72.2615,208.6721,-0.0096339,-0.00714157,0.0,0 STARLINK-3175,1 51140U 22005AN  22076.91667824 -.00714157  00000-0 -96339-2 0  9999,2 51140  53.2177 348.4880 0001218  72.2615 208.6721 15.59547079  3706,6767.104,92.335,389.793,388.145,0.0
51140.0,STARLINK-3175,PAYLOAD,2022-03-18 06:00:00,15.58934453,0.000117,53.2171,346.8745,68.7974,284.3994,-0.0078100999999999,-0.00575462,0.0,0 STARLINK-3175,1 51140U 22005AN  22077.25001157 -.00575462  00000-0 -78101-2 0  9999,2 51140  53.2171 346.8745 0001170  68.7974 284.3994 15.58934453 10477,6768.877,92.371,391.534,389.95,0.0
